{"type": "FeatureCollection", "features": [ {"type": "Feature", "properties": {"norad_id": 40275, "name": "YAOGAN-22", "group": "resource", "lat": 77.56642238838064, "lon": 59.002793393405106, "alt_km": 1198.8315315116042, "timestamp": "2025-12-01T03:58:49.207604+00:00", "meta": {"OBJECT_NAME": "YAOGAN-22", "OBJECT_ID": "2014-063A", "EPOCH": "2025-11-30T20:15:18.727200", "MEAN_MOTION": 13.15521988, "ECCENTRICITY": 0.0005848, "INCLINATION": 100.7416, "RA_OF_ASC_NODE": 118.0959, "ARG_OF_PERICENTER": 276.8808, "MEAN_ANOMALY": 83.1638, "EPHEMERIS_TYPE": 0, "CLASSIFICATION_TYPE": "U", "NORAD_CAT_ID": 40275, "ELEMENT_SET_NO": 999, "REV_AT_EPOCH": 53373, "BSTAR": 9.379e-05, "MEAN_MOTION_DOT": -1.1e-07, "MEAN_MOTION_DDOT": 0, "GROUP": "resource"}, "tle": {"line1": "1 40275U 14063A   25334.84396675 -.00000011  00000+0  93790-4 0  9991", "line2": "2 40275 100.7416 118.0959 0005848 276.8808  83.1638 13.15521988533739"}}, "geometry": {"type": "Point", "coordinates": [59.002793393405106, 77.56642238838064]}}, {"type": "Feature", "properties": {"norad_id": 40298, "name": "ASNARO", "group": "resource", "lat": 80.32397321451795, "lon": -79.2434346359572, "alt_km": 495.359412455191, "timestamp": "2025-12-01T03:58:49.207615+00:00", "meta": {"OBJECT_NAME": "ASNARO", "OBJECT_ID": "2014-070A", "EPOCH": "2025-11-30T19:39:26.402112", "MEAN_MOTION": 15.19764286, "ECCENTRICITY": 0.0006959, "INCLINATION": 97.3669, "RA_OF_ASC_NODE": 51.0581, "ARG_OF_PERICENTER": 135.4107, "MEAN_ANOMALY": 224.7689, "EPHEMERIS_TYPE": 0, "CLASSIFICATION_TYPE": "U", "NORAD_CAT_ID": 40298, "ELEMENT_SET_NO": 999, "REV_AT_EPOCH": 61388, "BSTAR": 0.00055123, "MEAN_MOTION_DOT": 0.00011741, "MEAN_MOTION_DDOT": 0, "GROUP": "resource"}, "tle": {"line1": "1 40298U 14070A   25334.81905558  .00011741  00000+0  55123-3 0  9995", "line2": "2 40298  97.3669  51.0581 0006959 135.4107 224.7689 15.19764286613888"}}, "geometry": {"type": "Point", "coordinates": [-79.2434346359572, 80.32397321451795]}}, {"type": "Feature", "properties": {"norad_id": 40310, "name": "YAOGAN-24", "group": "resource", "lat": 65.50446458274902, "lon": 87.93302865343115, "alt_km": 638.0601238658683, "timestamp": "2025-12-01T03:58:49.207625+00:00", "meta": {"OBJECT_NAME": "YAOGAN-24", "OBJECT_ID": "2014-072A", "EPOCH": "2025-11-30T21:10:14.634912", "MEAN_MOTION": 14.76135197, "ECCENTRICITY": 0.0014098, "INCLINATION": 98.1216, "RA_OF_ASC_NODE": 105.913, "ARG_OF_PERICENTER": 174.9033, "MEAN_ANOMALY": 185.2322, "EPHEMERIS_TYPE": 0, "CLASSIFICATION_TYPE": "U", "NORAD_CAT_ID": 40310, "ELEMENT_SET_NO": 999, "REV_AT_EPOCH": 59446, "BSTAR": 0.00015467, "MEAN_MOTION_DOT": 1.017e-05, "MEAN_MOTION_DDOT": 0, "GROUP": "resource"}, "tle": {"line1": "1 40310U 14072A   25334.88211383  .00001017  00000+0  15467-3 0  9997", "line2": "2 40310  98.1216 105.9130 0014098 174.9033 185.2322 14.76135197594460"}}, "geometry": {"type": "Point", "coordinates": [87.93302865343115, 65.50446458274902]}}, {"type": "Feature", "properties": {"norad_id": 40336, "name": "CBERS 4", "group": "resource", "lat": 57.2224872580254, "lon": 20.42130326603656, "alt_km": 767.4637759657644, "timestamp": "2025-12-01T03:58:49.207635+00:00", "meta": {"OBJECT_NAME": "CBERS 4", "OBJECT_ID": "2014-079A", "EPOCH": "2025-11-30T21:01:08.136768", "MEAN_MOTION": 14.35526481, "ECCENTRICITY": 0.0001372, "INCLINATION": 98.3326, "RA_OF_ASC_NODE": 33.2977, "ARG_OF_PERICENTER": 128.9994, "MEAN_ANOMALY": 231.1314, "EPHEMERIS_TYPE": 0, "CLASSIFICATION_TYPE": "U", "NORAD_CAT_ID": 40336, "ELEMENT_SET_NO": 999, "REV_AT_EPOCH": 57550, "BSTAR": 6.9005e-05, "MEAN_MOTION_DOT": 1.56e-06, "MEAN_MOTION_DDOT": 0, "GROUP": "resource"}, "tle": {"line1": "1 40336U 14079A   25334.87578862  .00000156  00000+0  69005-4 0  9990", "line2": "2 40336  98.3326  33.2977 0001372 128.9994 231.1314 14.35526481575501"}}, "geometry": {"type": "Point", "coordinates": [20.42130326603656, 57.2224872580254]}}, {"type": "Feature", "properties": {"norad_id": 40362, "name": "YAOGAN-26", "group": "resource", "lat": 28.11738249175862, "lon": -27.541301700154655, "alt_km": 444.494026526836, "timestamp": "2025-12-01T03:58:49.207646+00:00", "meta": {"OBJECT_NAME": "YAOGAN-26", "OBJECT_ID": "2014-088A", "EPOCH": "2025-11-30T20:03:13.001760", "MEAN_MOTION": 15.38669373, "ECCENTRICITY": 0.0007552, "INCLINATION": 97.0647, "RA_OF_ASC_NODE": 335.9401, "ARG_OF_PERICENTER": 61.2466, "MEAN_ANOMALY": 298.9538, "EPHEMERIS_TYPE": 0, "CLASSIFICATION_TYPE": "U", "NORAD_CAT_ID": 40362, "ELEMENT_SET_NO": 999, "REV_AT_EPOCH": 60711, "BSTAR": 0.00051797, "MEAN_MOTION_DOT": 0.00019753, "MEAN_MOTION_DDOT": 0, "GROUP": "resource"}, "tle": {"line1": "1 40362U 14088A   25334.83556715  .00019753  00000+0  51797-3 0  9999", "line2": "2 40362  97.0647 335.9401 0007552  61.2466 298.9538 15.38669373607119"}}, "geometry": {"type": "Point", "coordinates": [-27.541301700154655, 28.11738249175862]}}, {"type": "Feature", "properties": {"norad_id": 40376, "name": "SMAP", "group": "resource", "lat": -3.898439237278021, "lon": 159.49845417482794, "alt_km": 685.9406409637741, "timestamp": "2025-12-01T03:58:49.207657+00:00", "meta": {"OBJECT_NAME": "SMAP", "OBJECT_ID": "2015-003A", "EPOCH": "2025-11-30T18:56:16.264032", "MEAN_MOTION": 14.63351242, "ECCENTRICITY": 0.0001339, "INCLINATION": 98.1293, "RA_OF_ASC_NODE": 339.6852, "ARG_OF_PERICENTER": 90.0008, "MEAN_ANOMALY": 270.1347, "EPHEMERIS_TYPE": 0, "CLASSIFICATION_TYPE": "U", "NORAD_CAT_ID": 40376, "ELEMENT_SET_NO": 999, "REV_AT_EPOCH": 57860, "BSTAR": 0.00012542, "MEAN_MOTION_DOT": 6.01e-06, "MEAN_MOTION_DDOT": 0, "GROUP": "resource"}, "tle": {"line1": "1 40376U 15003A   25334.78907713  .00000601  00000+0  12542-3 0  9991", "line2": "2 40376  98.1293 339.6852 0001339  90.0008 270.1347 14.63351242578604"}}, "geometry": {"type": "Point", "coordinates": [159.49845417482794, -3.898439237278021]}}, {"type": "Feature", "properties": {"norad_id": 40536, "name": "KOMPSAT-3A", "group": "resource", "lat": 44.022480671009895, "lon": 136.3715256975326, "alt_km": 430.4623058566576, "timestamp": "2025-12-01T03:58:49.207668+00:00", "meta": {"OBJECT_NAME": "KOMPSAT-3A", "OBJECT_ID": "2015-014A", "EPOCH": "2025-11-30T21:10:16.487328", "MEAN_MOTION": 15.43304441, "ECCENTRICITY": 0.0003395, "INCLINATION": 97.6771, "RA_OF_ASC_NODE": 308.5816, "ARG_OF_PERICENTER": 152.3179, "MEAN_ANOMALY": 207.8249, "EPHEMERIS_TYPE": 0, "CLASSIFICATION_TYPE": "U", "NORAD_CAT_ID": 40536, "ELEMENT_SET_NO": 999, "REV_AT_EPOCH": 59112, "BSTAR": 0.00045234, "MEAN_MOTION_DOT": 0.00020077, "MEAN_MOTION_DDOT": 0, "GROUP": "resource"}, "tle": {"line1": "1 40536U 15014A   25334.88213527  .00020077  00000+0  45234-3 0  9998", "line2": "2 40536  97.6771 308.5816 0003395 152.3179 207.8249 15.43304441591125"}}, "geometry": {"type": "Point", "coordinates": [136.3715256975326, 44.022480671009895]}}, {"type": "Feature", "properties": {"norad_id": 40697, "name": "SENTINEL-2A", "group": "resource", "lat": -35.02317963489051, "lon": 53.93010753646648, "alt_km": 795.6659450489524, "timestamp": "2025-12-01T03:58:49.207680+00:00", "meta": {"OBJECT_NAME": "SENTINEL-2A", "OBJECT_ID": "2015-028A", "EPOCH": "2025-11-30T19:45:15.213600", "MEAN_MOTION": 14.3081949, "ECCENTRICITY": 0.0001045, "INCLINATION": 98.5708, "RA_OF_ASC_NODE": 47.5253, "ARG_OF_PERICENTER": 93.0661, "MEAN_ANOMALY": 267.0642, "EPHEMERIS_TYPE": 0, "CLASSIFICATION_TYPE": "U", "NORAD_CAT_ID": 40697, "ELEMENT_SET_NO": 999, "REV_AT_EPOCH": 54536, "BSTAR": 7.4026e-05, "MEAN_MOTION_DOT": 1.5e-06, "MEAN_MOTION_DDOT": 0, "GROUP": "resource"}, "tle": {"line1": "1 40697U 15028A   25334.82309275  .00000150  00000+0  74026-4 0  9993", "line2": "2 40697  98.5708  47.5253 0001045  93.0661 267.0642 14.30819490545365"}}, "geometry": {"type": "Point", "coordinates": [53.93010753646648, -35.02317963489051]}}, {"type": "Feature", "properties": {"norad_id": 40701, "name": "GAOFEN-8", "group": "resource", "lat": -42.22744919845856, "lon": -34.298515551951304, "alt_km": 453.34971855628555, "timestamp": "2025-12-01T03:58:49.207690+00:00", "meta": {"OBJECT_NAME": "GAOFEN-8", "OBJECT_ID": "2015-030A", "EPOCH": "2025-11-30T20:46:10.354368", "MEAN_MOTION": 15.37933554, "ECCENTRICITY": 0.0011107, "INCLINATION": 97.6912, "RA_OF_ASC_NODE": 152.4324, "ARG_OF_PERICENTER": 180.2663, "MEAN_ANOMALY": 179.8577, "EPHEMERIS_TYPE": 0, "CLASSIFICATION_TYPE": "U", "NORAD_CAT_ID": 40701, "ELEMENT_SET_NO": 999, "REV_AT_EPOCH": 58088, "BSTAR": 0.00052939, "MEAN_MOTION_DOT": 0.00019726, "MEAN_MOTION_DDOT": 0, "GROUP": "resource"}, "tle": {"line1": "1 40701U 15030A   25334.86539762  .00019726  00000+0  52939-3 0  9999", "line2": "2 40701  97.6912 152.4324 0011107 180.2663 179.8577 15.37933554580883"}}, "geometry": {"type": "Point", "coordinates": [-34.298515551951304, -42.22744919845856]}}, {"type": "Feature", "properties": {"norad_id": 40718, "name": "CARBONITE 1 (CBNT-1)", "group": "resource", "lat": -54.12536397559825, "lon": 167.41683327658046, "alt_km": 627.0464932971481, "timestamp": "2025-12-01T03:58:49.207701+00:00", "meta": {"OBJECT_NAME": "CARBONITE 1 (CBNT-1)", "OBJECT_ID": "2015-032D", "EPOCH": "2025-11-30T20:07:44.196672", "MEAN_MOTION": 14.82652481, "ECCENTRICITY": 0.0013677, "INCLINATION": 97.6405, "RA_OF_ASC_NODE": 156.4072, "ARG_OF_PERICENTER": 221.9046, "MEAN_ANOMALY": 138.1123, "EPHEMERIS_TYPE": 0, "CLASSIFICATION_TYPE": "U", "NORAD_CAT_ID": 40718, "ELEMENT_SET_NO": 999, "REV_AT_EPOCH": 55994, "BSTAR": 0.00031651, "MEAN_MOTION_DOT": 2.504e-05, "MEAN_MOTION_DDOT": 0, "GROUP": "resource"}, "tle": {"line1": "1 40718U 15032D   25334.83870598  .00002504  00000+0  31651-3 0  9995", "line2": "2 40718  97.6405 156.4072 0013677 221.9046 138.1123 14.82652481559948"}}, "geometry": {"type": "Point", "coordinates": [167.41683327658046, -54.12536397559825]}}]}